IRIDIUM 921 [-]         
1 24873U 97034E   23253.97855842  .00014114  00000+0  56764-3 0  9991
2 24873  86.3835  65.0135 0004066 221.5072 138.5865 15.24787926432583
IRIDIUM 26 [-]          
1 24903U 97043A   23253.82517440  .00000547  00000+0  18173-3 0  9995
2 24903  86.4000  21.3545 0002301  91.3019 268.8442 14.35986060364567
IRIDIUM 22 [-]          
1 24907U 97043E   23253.80539101  .00000558  00000+0  18966-3 0  9997
2 24907  86.3998  24.3761 0002087  93.9347 266.2088 14.34897606364184
DUMMY MASS 1 [-]        
1 24925U 97048A   23253.99929924  .00000588  00000+0  64414-4 0  9991
2 24925  86.3296  73.3925 0004583 273.4468  86.6232 14.85811897409531
DUMMY MASS 2 [-]        
1 24926U 97048B   23253.58654145  .00000568  00000+0  62480-4 0  9996
2 24926  86.3296  75.0788 0005489 290.6155  69.4480 14.85573464409021
IRIDIUM 29 [-]          
1 24944U 97051A   23253.54865993  .00000534  00000+0  17935-3 0  9998
2 24944  86.3931  54.4854 0002030  97.3778 262.7650 14.35359660360628
IRIDIUM 33 [-]          
1 24946U 97051C   23253.74063085  .00000396  00000+0  13462-3 0  9991
2 24946  86.3848  53.6848 0008950  37.0008 323.1804 14.34101665360223
IRIDIUM 28 [-]          
1 24948U 97051E   23253.73678505  .00000590  00000+0  19537-3 0  9996
2 24948  86.3941  52.2922 0002366  83.3831 276.7635 14.36278941361231
